QIANFAN-81              
1 63167U 25046J   25245.53989480  .00000250  00000+0  36806-3 0  9996
2 63167  88.9858 330.3174 0016061  60.2401 300.0345 13.50971127 33826
QIANFAN-82              
1 63168U 25046K   25245.57274334  .00000261  00000+0  38527-3 0  9990
2 63168  88.9858 330.3576 0014444  68.1079 292.1607 13.50968080 33819
QIANFAN-83              
1 63169U 25046L   25245.60746859  .00000317  00000+0  39524-3 0  9991
2 63169  88.9858 330.3285 0015486  59.1807 301.0872 13.61944687 33838
QIANFAN-84              
1 63170U 25046M   25245.60145197  .00000257  00000+0  37871-3 0  9997
2 63170  88.9858 330.4876 0017288  63.5733 296.7190 13.50974287 33746
QIANFAN-85              
1 63171U 25046N   25245.52346469  .00000260  00000+0  38379-3 0  9992
2 63171  88.9857 330.3678 0014755  67.1429 293.1278 13.50969025 33802
QIANFAN-86              
1 63172U 25046P   25245.53168324  .00000260  00000+0  38395-3 0  9994
2 63172  88.9859 330.2267 0012765  71.9965 288.2576 13.50969603 33881
QIANFAN-87              
1 63173U 25046Q   25245.50283903  .00000253  00000+0  37358-3 0  9993
2 63173  88.9856 330.3452 0013341  67.1547 293.1012 13.50966066 33813
QIANFAN-88              
1 63174U 25046R   25245.51934002  .00000261  00000+0  38497-3 0  9992
2 63174  88.9858 330.2955 0013917  73.9917 286.2766 13.50973428 33840
